FENGYUN 1C DEB          
1 29740U 99025AE  17345.32998208  .00000323  00000-0  92337-3 0  9993
2 29740  99.0572 281.1168 1006805 230.4291 120.3559 12.02591940477404
